*******************************************************************************
 Revised: Aug 17, 2009                Saturn                                699
 
 PHYSICAL DATA (updated 2009-May-26):
  Mass (10^26 kg)       = 5.68319         Density (g/cm^3)       =  0.687+-.001
  Equat. radius (1 bar) = 60268+-4 km     Polar radius (km)      = 54364+-10
  Volumetric mean radius= 58232+-6 km     Flattening             =  0.09796

  Rotation period       = 10h 39m 22.4s   Rot. rate(10^-4 rad/s) =  1.63785 
  m = w^2a^3/GM         =  0.15481        Hydrostatic flat., fh  =  0.09829
  Inferred rot. period  = 10.61+-0.02 hr  ks = 3*J2/m            =  0.317
  Mom. of inert. I/MRo^2=  0.210          I/MRo^2 (upper bound)  =  0.231 
  Rocky core mass (Mc/M)=  0.1027         Y factor (He/H ratio)  =  

  GM (km^3/s^2)         = 37931207.8      GM 1-sigma (km^3/s^2)  = +- 98
  Equ. grav, ge (m/s^2) = 10.44           Pol. grav, gp (m/s^2)  = 12.14+-0.01

  Geometric albedo      =  0.47           Visual magnitude V(1,0)= -8.88
  Vis. mag. (opposition)= +0.67           Obliquity to orbit     = 26.73 deg
  Sidereal orbit period = 29.447498 yr    Sidereal orbit period  = 10755.698 d
  Mean daily motion     = 0.0334979 deg/d Mean orbit velocity    =  9.6624 km/s

  Atmos. temp. (1 bar)  = 134+-4 K        Heat flow/mass (x10^7) = 15 erg/gm*s
  Planetary Solar Const =  15.04 W/m^2    Dipole tilt/offset     = 0.0deg/0.0Rp 
  Escape velocity (km/s)=  35.5           Mag.dip.mom(gauss-Rp^3)= 0.21
  Aroche(ice)/Rp        =  2.71           Hill's sphere rad. Rp  = 1100
*******************************************************************************
 
 
*******************************************************************************
Ephemeris / WWW_USER Fri Sep 24 09:52:55 2010  Pasadena, USA     / Horizons    
*******************************************************************************
Target body name: Saturn (699)                    {source: SAT317}
Center body name: Solar System Barycenter (0)     {source: DE405}
Center-site name: BODY CENTER
*******************************************************************************
Start time      : A.D. 2005-Jan-01 00:00:00.0000 CT 
Stop  time      : A.D. 2015-Jan-01 00:00:00.0000 CT 
Step-size       : 360 minutes
*******************************************************************************
Center geodetic : 0.00000000,0.00000000,0.0000000 {E-lon(deg),Lat(deg),Alt(km)}
Center cylindric: 0.00000000,0.00000000,0.0000000 {E-lon(deg),Dxy(km),Dz(km)}
Center radii    : (undefined)                                                  
Output units    : KM-S                                                         
Output format   : 02
Reference frame : ICRF/J2000.0                                                 
Output type     : GEOMETRIC cartesian states
Coordinate systm: Ecliptic and Mean Equinox of Reference Epoch                 
*******************************************************************************
JDCT ,   , X, Y, Z, VX, VY, VZ,
*******************************************************************************
$$SOE
2454692.750000000, A.D. 2008-Aug-14 06:00:00.0000, -1.319449318450606E+09,  4.530609466891301E+08,  4.462323373252738E+07, -3.652915184891251E+00, -9.158299391683570E+00,  3.048909240010631E-01,
2454693.000000000, A.D. 2008-Aug-14 12:00:00.0000, -1.319528205988622E+09,  4.528631212030538E+08,  4.462981937627089E+07, -3.651486761295075E+00, -9.158874267085038E+00,  3.048904851271557E-01,
2454693.250000000, A.D. 2008-Aug-14 18:00:00.0000, -1.319607062682312E+09,  4.526652833151636E+08,  4.463640500706592E+07, -3.650058400623702E+00, -9.159449642683889E+00,  3.048906264741955E-01,
2454693.500000000, A.D. 2008-Aug-15 00:00:00.0000, -1.319685888448431E+09,  4.524674329307792E+08,  4.464299067097440E+07, -3.648621335811248E+00, -9.160031222845980E+00,  3.048932840713134E-01,
2454693.750000000, A.D. 2008-Aug-15 06:00:00.0000, -1.319764683002197E+09,  4.522695699589941E+08,  4.464957638887143E+07, -3.647167669507759E+00, -9.160613755550607E+00,  3.048948204090598E-01,
2454694.000000000, A.D. 2008-Aug-15 12:00:00.0000, -1.319843445973103E+09,  4.520716944660416E+08,  4.465616208954066E+07, -3.645697744695882E+00, -9.161189614219841E+00,  3.048912528350902E-01,
2454694.250000000, A.D. 2008-Aug-15 18:00:00.0000, -1.319922177073403E+09,  4.518738066356673E+08,  4.466274764851823E+07, -3.644217844169975E+00, -9.161756232263459E+00,  3.048818886043310E-01,
2454694.500000000, A.D. 2008-Aug-16 00:00:00.0000, -1.320000876147765E+09,  4.516759066426092E+08,  4.466933296036133E+07, -3.642732653752724E+00, -9.162316511790241E+00,  3.048687949178879E-01,
2454694.750000000, A.D. 2008-Aug-16 06:00:00.0000, -1.320079543072082E+09,  4.514779945808676E+08,  4.467591796743789E+07, -3.641240073779694E+00, -9.162874068482001E+00,  3.048537963063627E-01,
2454695.000000000, A.D. 2008-Aug-16 12:00:00.0000, -1.320158177618624E+09,  4.512800705036235E+08,  4.468250262636846E+07, -3.639733705481840E+00, -9.163428582403093E+00,  3.048362258628980E-01,
2454695.250000000, A.D. 2008-Aug-16 18:00:00.0000, -1.320236779446724E+09,  4.510821345200320E+08,  4.468908685494557E+07, -3.638210673440172E+00, -9.163975599525058E+00,  3.048134611090281E-01,
2454695.500000000, A.D. 2008-Aug-17 00:00:00.0000, -1.320315348196189E+09,  4.508841868492486E+08,  4.469567050873762E+07, -3.636669372275177E+00, -9.164509870983933E+00,  3.047823496824869E-01,
2454695.750000000, A.D. 2008-Aug-17 06:00:00.0000, -1.320393883474763E+09,  4.506862278593333E+08,  4.470225335745913E+07, -3.635113160353179E+00, -9.165021364938116E+00,  3.047378947552586E-01,
2454696.000000000, A.D. 2008-Aug-17 12:00:00.0000, -1.320472385086084E+09,  4.504882581318210E+08,  4.470883507942036E+07, -3.633555641009270E+00, -9.165504654751414E+00,  3.046786799225587E-01,
2454696.250000000, A.D. 2008-Aug-17 18:00:00.0000, -1.320550853136492E+09,  4.502902782238908E+08,  4.471541539621210E+07, -3.632006162990895E+00, -9.165964846173946E+00,  3.046082807351227E-01,
2454696.500000000, A.D. 2008-Aug-18 00:00:00.0000, -1.320629287837752E+09,  4.500922885863509E+08,  4.472199409597799E+07, -3.630468620907072E+00, -9.166406198464571E+00,  3.045294128954494E-01,
2454696.750000000, A.D. 2008-Aug-18 06:00:00.0000, -1.320707689503282E+09,  4.498942895763022E+08,  4.472857102928326E+07, -3.628947895631033E+00, -9.166833745249580E+00,  3.044453613987601E-01,
2454697.000000000, A.D. 2008-Aug-18 12:00:00.0000, -1.320786058510867E+09,  4.496962814135234E+08,  4.473514612728882E+07, -3.627444126178667E+00, -9.167255025886812E+00,  3.043601129376685E-01,
2454697.250000000, A.D. 2008-Aug-18 18:00:00.0000, -1.320864395162014E+09,  4.494982641549792E+08,  4.474171939742696E+07, -3.625950323594155E+00, -9.167676659658142E+00,  3.042762974010640E-01,
2454697.500000000, A.D. 2008-Aug-19 00:00:00.0000, -1.320942699566474E+09,  4.493002377755688E+08,  4.474829086739820E+07, -3.624456934558328E+00, -9.168098865978132E+00,  3.041929140323809E-01,
2454697.750000000, A.D. 2008-Aug-19 06:00:00.0000, -1.321020971670572E+09,  4.491022023341019E+08,  4.475486050226295E+07, -3.622959592261619E+00, -9.168514037753308E+00,  3.041054978417224E-01,
2454698.000000000, A.D. 2008-Aug-19 12:00:00.0000, -1.321099211427954E+09,  4.489041580874323E+08,  4.476142816440281E+07, -3.621463454551955E+00, -9.168913112055220E+00,  3.040098721903348E-01,
2454698.250000000, A.D. 2008-Aug-19 18:00:00.0000, -1.321177418978925E+09,  4.487061054086292E+08,  4.476799367486534E+07, -3.619979224478578E+00, -9.169295752381053E+00,  3.039069340844867E-01,
2454698.500000000, A.D. 2008-Aug-20 00:00:00.0000, -1.321255594657717E+09,  4.485080445829442E+08,  4.477455691978857E+07, -3.618512176105615E+00, -9.169667259968001E+00,  3.038000296291203E-01,
2454698.750000000, A.D. 2008-Aug-20 06:00:00.0000, -1.321333738861919E+09,  4.483099758046888E+08,  4.478111784242693E+07, -3.617065552653006E+00, -9.170033379837310E+00,  3.036926658436889E-01,
2454699.000000000, A.D. 2008-Aug-20 12:00:00.0000, -1.321411852024874E+09,  4.481118991048725E+08,  4.478767647707519E+07, -3.615636744816337E+00, -9.170403216283830E+00,  3.035892870259267E-01,
2454699.250000000, A.D. 2008-Aug-20 18:00:00.0000, -1.321489934407818E+09,  4.479138143429320E+08,  4.479423292626193E+07, -3.614213726452180E+00, -9.170778753806964E+00,  3.034895265740976E-01,
2454699.500000000, A.D. 2008-Aug-21 00:00:00.0000, -1.321567986067562E+09,  4.477157214777914E+08,  4.480078721771184E+07, -3.612792413276221E+00, -9.171152366316560E+00,  3.033889314093683E-01,
2454699.750000000, A.D. 2008-Aug-21 06:00:00.0000, -1.321646007093030E+09,  4.475176206040074E+08,  4.480733931057638E+07, -3.611378423139867E+00, -9.171520169098651E+00,  3.032860082425404E-01,
2454700.000000000, A.D. 2008-Aug-21 12:00:00.0000, -1.321723997708986E+09,  4.473195118369207E+08,  4.481388916679034E+07, -3.609977213954424E+00, -9.171883817539822E+00,  3.031822051242621E-01,
2454700.250000000, A.D. 2008-Aug-21 18:00:00.0000, -1.321801958202390E+09,  4.471213952249539E+08,  4.482043679114291E+07, -3.608588901756832E+00, -9.172247145579007E+00,  3.030796513164580E-01,
2454700.500000000, A.D. 2008-Aug-22 00:00:00.0000, -1.321879888819267E+09,  4.469232707450047E+08,  4.482698222457471E+07, -3.607210331170546E+00, -9.172612486176540E+00,  3.029793868664625E-01,
2454700.750000000, A.D. 2008-Aug-22 06:00:00.0000, -1.321957789744166E+09,  4.467251383532811E+08,  4.483352551493299E+07, -3.605839561465520E+00, -9.172979493854159E+00,  3.028810895554028E-01,
2454701.000000000, A.D. 2008-Aug-22 12:00:00.0000, -1.322035661146655E+09,  4.465269980290992E+08,  4.484006669587851E+07, -3.604476843562542E+00, -9.173346795565759E+00,  3.027839511289478E-01,
2454701.250000000, A.D. 2008-Aug-22 18:00:00.0000, -1.322113503196487E+09,  4.463288497732893E+08,  4.484660578578699E+07, -3.603121396659250E+00, -9.173713830807582E+00,  3.026873669015240E-01,
